[{"OBJECT_NAME":"IRIDIUM 105","OBJECT_ID":"2017-003E","EPOCH":"2026-03-09T19:29:46.518144","MEAN_MOTION":14.34401202,"ECCENTRICITY":0.0002251,"INCLINATION":86.3921,"RA_OF_ASC_NODE":98.4421,"ARG_OF_PERICENTER":92.6468,"MEAN_ANOMALY":267.4986,"EPHEMERIS_TYPE":0,"CLASSIFICATION_TYPE":"U","NORAD_CAT_ID":41921,"ELEMENT_SET_NO":999,"REV_AT_EPOCH":48089,"BSTAR":7.7196279e-5,"MEAN_MOTION_DOT":2.37e-6,"MEAN_MOTION_DDOT":0},{"OBJECT_NAME":"COSMOS 2251 DEB","OBJECT_ID":"1993-036AWF","EPOCH":"2026-03-02T12:26:52.305216","MEAN_MOTION":14.37210901,"ECCENTRICITY":0.00227968,"INCLINATION":74.0375,"RA_OF_ASC_NODE":137.1171,"ARG_OF_PERICENTER":206.1701,"MEAN_ANOMALY":153.8303,"EPHEMERIS_TYPE":0,"CLASSIFICATION_TYPE":"U","NORAD_CAT_ID":35989,"ELEMENT_SET_NO":999,"REV_AT_EPOCH":88325,"BSTAR":0.00020336343,"MEAN_MOTION_DOT":5.81e-6,"MEAN_MOTION_DDOT":0}]
